        - "2 39076  51.9893 308.1620 0000587 197.5024 162.5822 12.62259231614998"
    hardwareSpecRef: oneweb
  - fsNode: globalstar-m095
    nodeType: satellite
    orbit:
      tle:
        - "1 39077U 13005F   26160.54754523 -.00000100  00000+0  22288-4 0  9992"
        - "2 39077  52.0095 304.4680 0000373 123.0320 237.0582 12.62263352614907"
    hardwareSpecRef: oneweb
  - fsNode: iridium-106
    nodeType: satellite
    orbit:
      tle:
        - "1 41917U 17003A   26160.35118270  .00000030  00000+0  37995-5 0  9995"
        - "2 41917  86.3963  91.8318 0001900  81.2827 278.8584 14.34217823492087"
    hardwareSpecRef: oneweb
  - fsNode: iridium-109
    nodeType: satellite
    orbit:
      tle:
        - "1 41919U 17003C   26160.55414674  .00000031  00000+0  39630-5 0  9995"
        - "2 41919  86.3964  91.7063 0002307  83.6652 276.4807 14.34217827492109"
    hardwareSpecRef: oneweb
  - fsNode: iridium-104
    nodeType: satellite
    orbit:
      tle:
        - "1 41922U 17003F   26160.53511981  .00000248  00000+0  81656-4 0  9990"
        - "2 41922  86.3962  91.6801 0002552  83.8808 276.2678 14.34217352492171"
    hardwareSpecRef: oneweb
  - fsNode: iridium-108
    nodeType: satellite
    orbit:
      tle:
        - "1 41924U 17003H   26160.22090839  .00000021  00000+0  51992-6 0  9993"
        - "2 41924  86.3963  60.0912 0002134  86.7873 273.3567 14.34217382493963"
    hardwareSpecRef: oneweb
  - fsNode: iridium-113
    nodeType: satellite
    orbit:
      tle:
        - "1 42803U 17039A   26160.49605570  .00000088  00000+0  24457-4 0  9999"
        - "2 42803  86.3965 325.3947 0002316  89.8560 270.2901 14.34217778470081"
    hardwareSpecRef: oneweb
  - fsNode: iridium-120
    nodeType: satellite
    orbit:
      tle:
        - "1 42805U 17039C   26160.48969861  .00000246  00000+0  80824-4 0  9992"
        - "2 42805  86.3953 325.1807 0001979  93.5476 266.5946 14.34213279470073"
    hardwareSpecRef: oneweb
  - fsNode: iridium-117
    nodeType: satellite
    orbit:
      tle:
        - "1 42808U 17039F   26160.51850630  .00000020  00000+0  35348-7 0  9996"
        - "2 42808  86.3968 356.7996 0002040  85.6365 274.5064 14.34217549468879"
    hardwareSpecRef: oneweb
  - fsNode: iridium-133
    nodeType: satellite
    orbit:
      tle:
        - "1 42955U 17061A   26160.35701826  .00000096  00000+0  27289-4 0  9993"
        - "2 42955  86.3978  28.5417 0002127  85.9106 274.2333 14.34216879453658"
    hardwareSpecRef: oneweb
  - fsNode: iridium-122
    nodeType: satellite
    orbit:
      tle:
        - "1 42957U 17061C   26160.38873498  .00000018  00000+0 -52215-6 0  9997"
        - "2 42957  86.3973  28.4478 0002219  84.4437 275.7012 14.34217678453663"
    hardwareSpecRef: oneweb
  - fsNode: iridium-107
    nodeType: satellite
    orbit:
      tle:
        - "1 42960U 17061F   26160.12234480  .00000110  00000+0  32040-4 0  9999"
        - "2 42960  86.3978  28.6430 0002055  80.3223 279.8204 14.34218146453667"
    hardwareSpecRef: oneweb
  - fsNode: iridium-136
    nodeType: satellite
    orbit:
      tle:
        - "1 42962U 17061H   26160.36970722  .00000151  00000+0  46898-4 0  9994"
        - "2 42962  86.3973  28.5252 0002067  84.8072 275.3359 14.34214606453714"
    hardwareSpecRef: oneweb
  - fsNode: iridium-135
    nodeType: satellite
    orbit:
      tle:
        - "1 43070U 17083A   26160.54679567  .00000008  00000+0 -42711-5 0  9995"
        - "2 43070  86.3959 325.2109 0002073  91.7442 268.3991 14.34217644443057"
    hardwareSpecRef: oneweb
  - fsNode: iridium-116
    nodeType: satellite
    orbit:
      tle:
        - "1 43072U 17083C   26160.54045301  .00000121  00000+0  36100-4 0  9999"
        - "2 43072  86.3958 325.1993 0001882  95.0586 265.0824 14.34217693443076"
    hardwareSpecRef: oneweb
  - fsNode: iridium-134
    nodeType: satellite
    orbit:
      tle:
        - "1 43075U 17083F   26160.52142536 -.00000006  00000+0 -91807-5 0  9998"
        - "2 43075  86.3957 325.2728 0001980  89.5502 270.5920 14.34217598443005"
    hardwareSpecRef: oneweb
  - fsNode: iridium-144
    nodeType: satellite
    orbit:
      tle:
        - "1 43249U 18030A   26160.34675216 -.00000033  00000+0 -18823-4 0  9996"
        - "2 43249  86.3949 293.6790 0001939  95.1708 264.9709 14.34217275429010"
    hardwareSpecRef: oneweb
  - fsNode: iridium-157
    nodeType: satellite
    orbit:
      tle:
        - "1 43251U 18030C   26160.44189158  .00000036  00000+0  57085-5 0  9990"
        - "2 43251  86.3953 293.6591 0002191  94.1703 265.9743 14.34217734429022"
    hardwareSpecRef: oneweb
  - fsNode: iridium-146
    nodeType: satellite
    orbit:
      tle:
        - "1 43254U 18030F   26160.35943763  .00000031  00000+0  41362-5 0  9999"
        - "2 43254  86.3953 293.6906 0002092  95.7827 264.3608 14.34217680429011"
    hardwareSpecRef: oneweb
  - fsNode: iridium-142
    nodeType: satellite
    orbit:
      tle:
        - "1 43256U 18030H   26160.43554777  .00000060  00000+0  14361-4 0  9993"
        - "2 43256  86.3952 293.5912 0002025  96.2127 263.9300 14.34218034429022"
    hardwareSpecRef: oneweb
  - fsNode: iridium-161
    nodeType: satellite
    orbit:
      tle:
        - "1 43478U 18047C   26160.54260481  .00000291  00000+0  80587-4 0  9994"
        - "2 43478  86.4482  91.6672 0002559  87.7668 272.3826 14.43278698424039"
    hardwareSpecRef: oneweb
  - fsNode: iridium-147
    nodeType: satellite
    orbit:
      tle:
        - "1 43480U 18047E   26160.50340565  .00000060  00000+0  14240-4 0  9992"
        - "2 43480  86.3959  91.5497 0002137  84.6699 275.4741 14.34217690421386"
    hardwareSpecRef: oneweb
  - fsNode: iridium-160
    nodeType: satellite
    orbit:
      tle:
        - "1 43569U 18061A   26160.45558425  .00000001  00000+0 -66170-5 0  9992"
        - "2 43569  86.3967  60.0300 0002255  86.3827 273.7627 14.34217610412263"
    hardwareSpecRef: oneweb
  - fsNode: iridium-158
    nodeType: satellite
    orbit:
      tle:
        - "1 43571U 18061C   26160.23993579  .00000096  00000+0  27330-4 0  9991"
        - "2 43571  86.3965  60.0807 0002257  82.5382 277.6071 14.34217659412227"
    hardwareSpecRef: oneweb
  - fsNode: iridium-156
    nodeType: satellite
    orbit:
      tle:
        - "1 43576U 18061H   26160.44289960  .00000222  00000+0  72131-4 0  9991"
        - "2 43576  86.3992  59.9645 0002879  78.2319 281.9200 14.34215880412261"
    hardwareSpecRef: oneweb
  - fsNode: iridium-180
    nodeType: satellite
    orbit:
      tle:
        - "1 43922U 19002A   26160.53119108  .00000038  00000+0  65956-5 0  9991"
        - "2 43922  86.3972 356.7990 0002248  89.1614 270.9839 14.34217921387898"
    hardwareSpecRef: oneweb
  - fsNode: iridium-168
    nodeType: satellite
    orbit:
      tle:
        - "1 43924U 19002C   26160.52484932  .00000033  00000+0  47920-5 0  9998"
        - "2 43924  86.3975 356.8787 0002180  89.1370 271.0076 14.34217659387873"
    hardwareSpecRef: oneweb
  - fsNode: iridium-172
    nodeType: satellite
    orbit:
      tle:
        - "1 43927U 19002F   26160.50581930  .00000108  00000+0  31621-4 0  9998"
        - "2 43927  86.3971 356.7836 0002286  88.8646 271.2811 14.34218727387860"
    hardwareSpecRef: oneweb
  - fsNode: iridium-171
    nodeType: satellite
    orbit:
      tle:
        - "1 43929U 19002H   26160.55656004  .00000133  00000+0  40383-4 0  9993"
        - "2 43929  86.3980 357.0678 0002008  86.8691 273.2734 14.34218921387862"
    hardwareSpecRef: oneweb
  - fsNode: iridium-181
    nodeType: satellite
    orbit:
      tle:
        - "1 56726U 23068S   26160.48022666  .00000290  00000+0  80135-4 0  9995"
        - "2 56726  86.4503  60.0122 0002292  90.7196 269.4267 14.43310549161325"
    hardwareSpecRef: oneweb
  - fsNode: iridium-174
    nodeType: satellite
    orbit:
      tle:
        - "1 56728U 23068U   26160.54042773  .00000758  00000+0  11637-3 0  9994"
        - "2 56728  86.6100 356.8888 0002571  85.2134 274.9377 14.72253394164892"
    hardwareSpecRef: oneweb
  - fsNode: oneweb-0026
    nodeType: satellite
    orbit:
      tle:
        - "1 45139U 20008J   26160.52888527  .00000574  00000+0  15834-2 0  9990"
        - "2 45139  87.8893  22.5929 0001725  89.1217 271.0109 13.11417689310105"
    hardwareSpecRef: oneweb
  - fsNode: oneweb-0049
    nodeType: satellite
    orbit:
      tle:
        - "1 45154U 20008Z   26160.35885655  .00000084  00000+0  20372-3 0  9997"
        - "2 45154  87.8839  37.8361 0002228  84.7172 275.4209 13.10369252307006"
    hardwareSpecRef: oneweb
  - fsNode: oneweb-0080
    nodeType: satellite
    orbit:
      tle:
        - "1 45426U 20020C   26160.55445322 -.00000233  00000+0 -69253-3 0  9997"
        - "2 45426  87.8903  22.5860 0001525  89.1840 270.9463 13.11415179301709"
    hardwareSpecRef: oneweb
  - fsNode: oneweb-0037
    nodeType: satellite
    orbit:
      tle:
        - "1 45440U 20020S   26160.53964501  .00000317  00000+0  85227-3 0  9996"
        - "2 45440  87.8913  22.5583 0001895  85.8926 274.2419 13.11911109301696"
    hardwareSpecRef: oneweb
  - fsNode: oneweb-0050
    nodeType: satellite
    orbit:
      tle:
        - "1 45453U 20020AF  26160.21959584  .00002380  00000+0  24265-3 0  9997"
        - "2 45453  88.9297 234.2920 0004337  45.3431 314.8151 14.90348456339197"
    hardwareSpecRef: oneweb
  - fsNode: oneweb-0121
    nodeType: satellite
    orbit:
      tle:
        - "1 47267U 20100K   26160.51702793  .00000478  00000+0  12928-2 0  9990"
        - "2 47267  87.8950 352.1823 0001817  79.0287 281.1046 13.12443852263634"
    hardwareSpecRef: oneweb
  - fsNode: oneweb-0134
    nodeType: satellite
    orbit:
      tle:
        - "1 47280U 20100Y   26160.50176964  .00000028  00000+0  42474-4 0  9991"
        - "2 47280  87.8953 352.1738 0001560  93.9803 266.1504 13.12445262263708"
    hardwareSpecRef: oneweb
  - fsNode: oneweb-0115
    nodeType: satellite
    orbit:
      tle:
        - "1 48042U 21025A   26160.48177911 -.00000156  00000+0 -46123-3 0  9993"
